{
  "norad_id": 66996,
  "name": "2025-292D",
  "history": [
    {
      "epoch": "2026-03-28T20:24:03.117312Z",
      "apogee_km": 558.9159766434404,
      "perigee_km": 541.0642714828664,
      "latitude_deg": -3.890029615729483e-06,
      "longitude_deg": 32.0669420196493,
      "height_km": 552.4124628978785,
      "semi_major_axis_km": 6928.127124063153,
      "eccentricity": 0.00128835,
      "inclination_deg": 97.6349,
      "raan_deg": 164.3445,
      "arg_perigee_deg": 274.1705,
      "mean_anomaly_deg": 85.8049,
      "mean_motion_rev_day": 15.05493865
    },
    {
      "epoch": "2026-03-29T04:22:35.971392Z",
      "apogee_km": 558.9207738112682,
      "perigee_km": 541.0323845498242,
      "latitude_deg": -7.837148694771322e-06,
      "longitude_deg": -87.56870359111049,
      "height_km": 552.5872464446869,
      "semi_major_axis_km": 6928.113579180546,
      "eccentricity": 0.001291,
      "inclination_deg": 97.6348,
      "raan_deg": 164.6733,
      "arg_perigee_deg": 272.9534,
      "mean_anomaly_deg": 87.0215,
      "mean_motion_rev_day": 15.0549828
    },
    {
      "epoch": "2026-03-30T04:18:14.252832Z",
      "apogee_km": 558.9769472872977,
      "perigee_km": 540.9265049203068,
      "latitude_deg": 8.042488175493683e-06,
      "longitude_deg": -86.4742703954768,
      "height_km": 553.1529703762232,
      "semi_major_axis_km": 6928.0887261038015,
      "eccentricity": 0.0013027,
      "inclination_deg": 97.6346,
      "raan_deg": 165.6599,
      "arg_perigee_deg": 269.177,
      "mean_anomaly_deg": 90.7964,
      "mean_motion_rev_day": 15.05506381
    },
    {
      "epoch": "2026-03-30T04:18:14.253696Z",
      "apogee_km": 558.9772936917334,
      "perigee_km": 540.9261585158702,
      "latitude_deg": 1.3756910628253195e-05,
      "longitude_deg": -86.47427476712,
      "height_km": 553.1529753525815,
      "semi_major_axis_km": 6928.0887261038015,
      "eccentricity": 0.00130275,
      "inclination_deg": 97.6346,
      "raan_deg": 165.6599,
      "arg_perigee_deg": 269.177,
      "mean_anomaly_deg": 90.7964,
      "mean_motion_rev_day": 15.05506381
    },
    {
      "epoch": "2026-03-30T13:52:29.417664Z",
      "apogee_km": 559.0123874916926,
      "perigee_km": 540.8683071652267,
      "latitude_deg": 7.775110467522977e-05,
      "longitude_deg": 129.9641719342783,
      "height_km": 553.3714585813726,
      "semi_major_axis_km": 6928.077347328459,
      "eccentricity": 0.00130946,
      "inclination_deg": 97.6344,
      "raan_deg": 166.0546,
      "arg_perigee_deg": 267.7292,
      "mean_anomaly_deg": 92.2436,
      "mean_motion_rev_day": 15.0551009
    }
  ]
}